STARLINK-30845          
1 58207U 23170B   26068.42956217  .00004349  00000+0  33222-3 0  9997
2 58207  43.0009 197.0622 0000937 266.2361  93.8374 15.03060829130240
PICO-02A021             
1 60538U 24149BY  26068.15390193  .00008488  00000+0  64833-3 0  9999
2 60538  97.6823 147.9080 0004195   9.5557 350.5747 15.02201963 84718
