[{"OBJECT_NAME":"STARLINK-30845","OBJECT_ID":"2023-170B","EPOCH":"2026-03-09T10:18:34.171488","MEAN_MOTION":15.03060829,"ECCENTRICITY":9.377e-5,"INCLINATION":43.0009,"RA_OF_ASC_NODE":197.0622,"ARG_OF_PERICENTER":266.2361,"MEAN_ANOMALY":93.8374,"EPHEMERIS_TYPE":0,"CLASSIFICATION_TYPE":"U","NORAD_CAT_ID":58207,"ELEMENT_SET_NO":999,"REV_AT_EPOCH":13024,"BSTAR":0.00033221826,"MEAN_MOTION_DOT":4.349e-5,"MEAN_MOTION_DDOT":0},{"OBJECT_NAME":"PICO-02A021","OBJECT_ID":"2024-149BY","EPOCH":"2026-03-09T03:41:37.126752","MEAN_MOTION":15.02201963,"ECCENTRICITY":0.00041954,"INCLINATION":97.6823,"RA_OF_ASC_NODE":147.908,"ARG_OF_PERICENTER":9.5557,"MEAN_ANOMALY":350.5747,"EPHEMERIS_TYPE":0,"CLASSIFICATION_TYPE":"U","NORAD_CAT_ID":60538,"ELEMENT_SET_NO":999,"REV_AT_EPOCH":8471,"BSTAR":0.00064833457,"MEAN_MOTION_DOT":8.488e-5,"MEAN_MOTION_DDOT":0}]
